{"type": "FeatureCollection", "features": [ {"type": "Feature", "properties": {"norad_id": 66968, "name": "STARLINK-36152", "group": "last-30-days", "lat": 18.46893058018572, "lon": -80.78812632690499, "alt_km": 325.99323679612917, "timestamp": "2025-12-20T09:36:00.355106+00:00", "meta": {"OBJECT_NAME": "STARLINK-36152", "OBJECT_ID": "2025-288K", "EPOCH": "2025-12-20T04:00:00.999072", "MEAN_MOTION": 15.81473242, "ECCENTRICITY": 0.000167, "INCLINATION": 43.0018, "RA_OF_ASC_NODE": 121.6427, "ARG_OF_PERICENTER": 266.6436, "MEAN_ANOMALY": 355.884, "EPHEMERIS_TYPE": 0, "CLASSIFICATION_TYPE": "U", "NORAD_CAT_ID": 66968, "ELEMENT_SET_NO": 999, "REV_AT_EPOCH": 302, "BSTAR": -0.0076074, "MEAN_MOTION_DOT": -0.0139134, "MEAN_MOTION_DDOT": 0}, "tle": {"line1": "1 66968U 25288K   25354.16667823 -.01391340  00000+0 -76074-2 0  9996", "line2": "2 66968  43.0018 121.6427 0001670 266.6436 355.8840 15.81473242  3028"}}, "geometry": {"type": "Point", "coordinates": [-80.78812632690499, 18.46893058018572]}}, {"type": "Feature", "properties": {"norad_id": 66969, "name": "STARLINK-36149", "group": "last-30-days", "lat": 11.055948130801813, "lon": -71.91792978916948, "alt_km": 327.31702986432083, "timestamp": "2025-12-20T09:36:00.355119+00:00", "meta": {"OBJECT_NAME": "STARLINK-36149", "OBJECT_ID": "2025-288L", "EPOCH": "2025-12-20T04:00:00.999072", "MEAN_MOTION": 15.81365626, "ECCENTRICITY": 0.0001424, "INCLINATION": 43.0015, "RA_OF_ASC_NODE": 121.6139, "ARG_OF_PERICENTER": 270.6279, "MEAN_ANOMALY": 3.3433, "EPHEMERIS_TYPE": 0, "CLASSIFICATION_TYPE": "U", "NORAD_CAT_ID": 66969, "ELEMENT_SET_NO": 999, "REV_AT_EPOCH": 302, "BSTAR": -0.0079079, "MEAN_MOTION_DOT": -0.01433457, "MEAN_MOTION_DDOT": 0}, "tle": {"line1": "1 66969U 25288L   25354.16667823 -.01433457  00000+0 -79079-2 0  9991", "line2": "2 66969  43.0015 121.6139 0001424 270.6279   3.3433 15.81365626  3022"}}, "geometry": {"type": "Point", "coordinates": [-71.91792978916948, 11.055948130801813]}}, {"type": "Feature", "properties": {"norad_id": 66970, "name": "STARLINK-35703", "group": "last-30-days", "lat": 4.932685122043027, "lon": -65.15166306069484, "alt_km": 328.3496725146488, "timestamp": "2025-12-20T09:36:00.355129+00:00", "meta": {"OBJECT_NAME": "STARLINK-35703", "OBJECT_ID": "2025-288M", "EPOCH": "2025-12-20T04:00:00.999072", "MEAN_MOTION": 15.81280677, "ECCENTRICITY": 0.0001529, "INCLINATION": 43.0016, "RA_OF_ASC_NODE": 121.5905, "ARG_OF_PERICENTER": 269.7902, "MEAN_ANOMALY": 13.353, "EPHEMERIS_TYPE": 0, "CLASSIFICATION_TYPE": "U", "NORAD_CAT_ID": 66970, "ELEMENT_SET_NO": 999, "REV_AT_EPOCH": 302, "BSTAR": -0.0082179, "MEAN_MOTION_DOT": -0.01477916, "MEAN_MOTION_DDOT": 0}, "tle": {"line1": "1 66970U 25288M   25354.16667823 -.01477916  00000+0 -82179-2 0  9996", "line2": "2 66970  43.0016 121.5905 0001529 269.7902  13.3530 15.81280677  3024"}}, "geometry": {"type": "Point", "coordinates": [-65.15166306069484, 4.932685122043027]}}, {"type": "Feature", "properties": {"norad_id": 66971, "name": "STARLINK-35678", "group": "last-30-days", "lat": 17.30561815992844, "lon": -79.32240855065189, "alt_km": 326.125478745932, "timestamp": "2025-12-20T09:36:00.355139+00:00", "meta": {"OBJECT_NAME": "STARLINK-35678", "OBJECT_ID": "2025-288N", "EPOCH": "2025-12-20T04:00:00.999072", "MEAN_MOTION": 15.81499208, "ECCENTRICITY": 0.0001721, "INCLINATION": 43.0021, "RA_OF_ASC_NODE": 121.6388, "ARG_OF_PERICENTER": 268.3481, "MEAN_ANOMALY": 355.977, "EPHEMERIS_TYPE": 0, "CLASSIFICATION_TYPE": "U", "NORAD_CAT_ID": 66971, "ELEMENT_SET_NO": 999, "REV_AT_EPOCH": 302, "BSTAR": -0.0076242, "MEAN_MOTION_DOT": -0.01395627, "MEAN_MOTION_DDOT": 0}, "tle": {"line1": "1 66971U 25288N   25354.16667823 -.01395627  00000+0 -76242-2 0  9999", "line2": "2 66971  43.0021 121.6388 0001721 268.3481 355.9770 15.81499208  3021"}}, "geometry": {"type": "Point", "coordinates": [-79.32240855065189, 17.30561815992844]}}, {"type": "Feature", "properties": {"norad_id": 66972, "name": "STARLINK-34846", "group": "last-30-days", "lat": 15.69321290690049, "lon": -77.34328419732181, "alt_km": 326.46263405730497, "timestamp": "2025-12-20T09:36:00.355151+00:00", "meta": {"OBJECT_NAME": "STARLINK-34846", "OBJECT_ID": "2025-288P", "EPOCH": "2025-12-20T04:00:00.999072", "MEAN_MOTION": 15.8145468, "ECCENTRICITY": 0.0001704, "INCLINATION": 43.0021, "RA_OF_ASC_NODE": 121.6325, "ARG_OF_PERICENTER": 268.1618, "MEAN_ANOMALY": 358.6965, "EPHEMERIS_TYPE": 0, "CLASSIFICATION_TYPE": "U", "NORAD_CAT_ID": 66972, "ELEMENT_SET_NO": 999, "REV_AT_EPOCH": 302, "BSTAR": -0.0077061, "MEAN_MOTION_DOT": -0.01406326, "MEAN_MOTION_DDOT": 0}, "tle": {"line1": "1 66972U 25288P   25354.16667823 -.01406326  00000+0 -77061-2 0  9999", "line2": "2 66972  43.0021 121.6325 0001704 268.1618 358.6965 15.81454680  3025"}}, "geometry": {"type": "Point", "coordinates": [-77.34328419732181, 15.69321290690049]}}, {"type": "Feature", "properties": {"norad_id": 66973, "name": "STARLINK-35778", "group": "last-30-days", "lat": 14.173646016490649, "lon": -75.52637345164159, "alt_km": 326.7350336272393, "timestamp": "2025-12-20T09:36:00.355161+00:00", "meta": {"OBJECT_NAME": "STARLINK-35778", "OBJECT_ID": "2025-288Q", "EPOCH": "2025-12-20T04:00:00.999072", "MEAN_MOTION": 15.81426559, "ECCENTRICITY": 0.0001686, "INCLINATION": 43.002, "RA_OF_ASC_NODE": 121.6263, "ARG_OF_PERICENTER": 267.9736, "MEAN_ANOMALY": 1.2353, "EPHEMERIS_TYPE": 0, "CLASSIFICATION_TYPE": "U", "NORAD_CAT_ID": 66973, "ELEMENT_SET_NO": 999, "REV_AT_EPOCH": 302, "BSTAR": -0.007767, "MEAN_MOTION_DOT": -0.01414527, "MEAN_MOTION_DDOT": 0}, "tle": {"line1": "1 66973U 25288Q   25354.16667823 -.01414527  00000+0 -77670-2 0  9998", "line2": "2 66973  43.0020 121.6263 0001686 267.9736   1.2353 15.81426559  3029"}}, "geometry": {"type": "Point", "coordinates": [-75.52637345164159, 14.173646016490649]}}, {"type": "Feature", "properties": {"norad_id": 66974, "name": "STARLINK-35780", "group": "last-30-days", "lat": 12.678243200952865, "lon": -73.77698056429833, "alt_km": 327.03480585366833, "timestamp": "2025-12-20T09:36:00.355170+00:00", "meta": {"OBJECT_NAME": "STARLINK-35780", "OBJECT_ID": "2025-288R", "EPOCH": "2025-12-20T04:00:00.999072", "MEAN_MOTION": 15.81406532, "ECCENTRICITY": 0.0001756, "INCLINATION": 43.0019, "RA_OF_ASC_NODE": 121.6208, "ARG_OF_PERICENTER": 269.1837, "MEAN_ANOMALY": 2.3135, "EPHEMERIS_TYPE": 0, "CLASSIFICATION_TYPE": "U", "NORAD_CAT_ID": 66974, "ELEMENT_SET_NO": 999, "REV_AT_EPOCH": 302, "BSTAR": -0.0078422, "MEAN_MOTION_DOT": -0.01425546, "MEAN_MOTION_DDOT": 0}, "tle": {"line1": "1 66974U 25288R   25354.16667823 -.01425546  00000+0 -78422-2 0  9998", "line2": "2 66974  43.0019 121.6208 0001756 269.1837   2.3135 15.81406532  3020"}}, "geometry": {"type": "Point", "coordinates": [-73.77698056429833, 12.678243200952865]}}, {"type": "Feature", "properties": {"norad_id": 66975, "name": "STARLINK-35777", "group": "last-30-days", "lat": 9.642343250234925, "lon": -70.3240960273583, "alt_km": 327.4787349928247, "timestamp": "2025-12-20T09:36:00.355182+00:00", "meta": {"OBJECT_NAME": "STARLINK-35777", "OBJECT_ID": "2025-288S", "EPOCH": "2025-12-20T04:00:00.999072", "MEAN_MOTION": 15.81358167, "ECCENTRICITY": 0.0001724, "INCLINATION": 43.0021, "RA_OF_ASC_NODE": 121.6088, "ARG_OF_PERICENTER": 266.5196, "MEAN_ANOMALY": 9.5762, "EPHEMERIS_TYPE": 0, "CLASSIFICATION_TYPE": "U", "NORAD_CAT_ID": 66975, "ELEMENT_SET_NO": 999, "REV_AT_EPOCH": 302, "BSTAR": -0.007926, "MEAN_MOTION_DOT": -0.01436129, "MEAN_MOTION_DDOT": 0}, "tle": {"line1": "1 66975U 25288S   25354.16667823 -.01436129  00000+0 -79260-2 0  9999", "line2": "2 66975  43.0021 121.6088 0001724 266.5196   9.5762 15.81358167  3029"}}, "geometry": {"type": "Point", "coordinates": [-70.3240960273583, 9.642343250234925]}}, {"type": "Feature", "properties": {"norad_id": 66976, "name": "STARLINK-35772", "group": "last-30-days", "lat": 16.204512476743286, "lon": 138.70572564192517, "alt_km": 361.354212937772, "timestamp": "2025-12-20T09:36:00.355194+00:00", "meta": {"OBJECT_NAME": "STARLINK-35772", "OBJECT_ID": "2025-288T", "EPOCH": "2025-12-20T04:00:00.999072", "MEAN_MOTION": 15.69677011, "ECCENTRICITY": 0.0001195, "INCLINATION": 43.0007, "RA_OF_ASC_NODE": 121.9375, "ARG_OF_PERICENTER": 278.1097, "MEAN_ANOMALY": 226.5675, "EPHEMERIS_TYPE": 0, "CLASSIFICATION_TYPE": "U", "NORAD_CAT_ID": 66976, "ELEMENT_SET_NO": 999, "REV_AT_EPOCH": 302, "BSTAR": -0.023315, "MEAN_MOTION_DOT": -0.02491398, "MEAN_MOTION_DDOT": 0}, "tle": {"line1": "1 66976U 25288T   25354.16667823 -.02491398  00000+0 -23315-1 0  9999", "line2": "2 66976  43.0007 121.9375 0001195 278.1097 226.5675 15.69677011  3029"}}, "geometry": {"type": "Point", "coordinates": [138.70572564192517, 16.204512476743286]}}, {"type": "Feature", "properties": {"norad_id": 66977, "name": "STARLINK-35770", "group": "last-30-days", "lat": 7.927653443673232, "lon": -68.41945710318531, "alt_km": 327.8698898233433, "timestamp": "2025-12-20T09:36:00.355205+00:00", "meta": {"OBJECT_NAME": "STARLINK-35770", "OBJECT_ID": "2025-288U", "EPOCH": "2025-12-20T04:00:00.999072", "MEAN_MOTION": 15.8130517, "ECCENTRICITY": 0.0001549, "INCLINATION": 43.002, "RA_OF_ASC_NODE": 121.6027, "ARG_OF_PERICENTER": 268.7023, "MEAN_ANOMALY": 9.9885, "EPHEMERIS_TYPE": 0, "CLASSIFICATION_TYPE": "U", "NORAD_CAT_ID": 66977, "ELEMENT_SET_NO": 999, "REV_AT_EPOCH": 302, "BSTAR": -0.0080212, "MEAN_MOTION_DOT": -0.01448087, "MEAN_MOTION_DDOT": 0}, "tle": {"line1": "1 66977U 25288U   25354.16667823 -.01448087  00000+0 -80212-2 0  9996", "line2": "2 66977  43.0020 121.6027 0001549 268.7023   9.9885 15.81305170  3027"}}, "geometry": {"type": "Point", "coordinates": [-68.41945710318531, 7.927653443673232]}}]}